CCSDS_OMM_VERS,COMMENT,CREATION_DATE,ORIGINATOR,OBJECT_NAME,OBJECT_ID,CENTER_NAME,REF_FRAME,TIME_SYSTEM,MEAN_ELEMENT_THEORY,EPOCH,MEAN_MOTION,ECCENTRICITY,INCLINATION,RA_OF_ASC_NODE,ARG_OF_PERICENTER,MEAN_ANOMALY,EPHEMERIS_TYPE,CLASSIFICATION_TYPE,NORAD_CAT_ID,ELEMENT_SET_NO,REV_AT_EPOCH,BSTAR,MEAN_MOTION_DOT,MEAN_MOTION_DDOT,SEMIMAJOR_AXIS,PERIOD,APOAPSIS,PERIAPSIS,OBJECT_TYPE,RCS_SIZE,COUNTRY_CODE,LAUNCH_DATE,SITE,DECAY_DATE,FILE,GP_ID,TLE_LINE0,TLE_LINE1,TLE_LINE2
2,GENERATED VIA SPACE-TRACK.ORG API,2021-09-05T07:06:20,18 SPCS,JCSAT 2,1990-001B,EARTH,TEME,UTC,SGP4,2021-09-04T17:15:46.542816,0.98538955,0.0056235,14.6045,25.1739,283.501,248.8754,0,U,20402,999,9810,0.0,-1.86e-06,0,42657.612,1461.351,36519.362,36039.592,PAYLOAD,LARGE,JPN,1990-01-01,AFETR,,3108897,184110216,0 JCSAT 2,1 20402U 90001B   21247.71928869 -.00000186  00000-0  00000+0 0  9999,2 20402  14.6045  25.1739 0056235 283.5010 248.8754  0.98538955 98105
2,GENERATED VIA SPACE-TRACK.ORG API,2021-09-05T18:20:02,18 SPCS,JCSAT 2,1990-001B,EARTH,TEME,UTC,SGP4,2021-09-05T05:51:42.896736,0.98538777,0.0056252,14.6049,25.1695,283.4917,75.1141,0,U,20402,999,9812,0.0,-1.76e-06,0,42657.663,1461.354,36519.486,36039.57,PAYLOAD,LARGE,JPN,1990-01-01,AFETR,,3109252,184123835,0 JCSAT 2,1 20402U 90001B   21248.24424649 -.00000176  00000-0  00000-0 0  9995,2 20402  14.6049  25.1695 0056252 283.4917  75.1141  0.98538777 98129
2,GENERATED VIA SPACE-TRACK.ORG API,2021-09-06T03:29:56,18 SPCS,JCSAT 2,1990-001B,EARTH,TEME,UTC,SGP4,2021-09-05T17:21:06.519168,0.98538615,0.0056254,14.6053,25.1655,283.4851,244.9563,0,U,20402,999,9813,0.0,-1.66e-06,0,42657.71,1461.356,36519.542,36039.608,PAYLOAD,LARGE,JPN,1990-01-01,AFETR,,3109348,184150273,0 JCSAT 2,1 20402U 90001B   21248.72299212 -.00000166  00000-0  00000-0 0  9993,2 20402  14.6053  25.1655 0056254 283.4851 244.9563  0.98538615 98135
2,GENERATED VIA SPACE-TRACK.ORG API,2021-09-06T17:45:34,18 SPCS,JCSAT 2,1990-001B,EARTH,TEME,UTC,SGP4,2021-09-06T07:07:05.190240,0.98538409,0.0056274,14.6058,25.1607,283.4764,88.448,0,U,20402,999,9814,0.0,-1.54e-06,0,42657.77,1461.359,36519.687,36039.582,PAYLOAD,LARGE,JPN,1990-01-01,AFETR,,3109699,184180975,0 JCSAT 2,1 20402U 90001B   21249.29658785 -.00000154  00000-0  00000-0 0  9997,2 20402  14.6058  25.1607 0056274 283.4764  88.4480  0.98538409 98143
2,GENERATED VIA SPACE-TRACK.ORG API,2021-09-06T22:36:11,18 SPCS,JCSAT 2,1990-001B,EARTH,TEME,UTC,SGP4,2021-09-06T19:09:15.617952,0.98538214,0.0056281,14.6063,25.1565,283.4671,266.3668,0,U,20402,999,9812,0.0,-1.43e-06,0,42657.826,1461.362,36519.773,36039.608,PAYLOAD,LARGE,JPN,1990-01-01,AFETR,,3109809,184201156,0 JCSAT 2,1 20402U 90001B   21249.79809743 -.00000143  00000-0  00000+0 0  9991,2 20402  14.6063  25.1565 0056281 283.4671 266.3668  0.98538214 98124
2,GENERATED VIA SPACE-TRACK.ORG API,2021-09-07T04:24:17,18 SPCS,JCSAT 2,1990-001B,EARTH,TEME,UTC,SGP4,2021-09-06T19:09:15.617952,0.98538214,0.0056281,14.6063,25.1565,283.4671,266.3668,0,U,20402,999,9814,0.0,-1.43e-06,0,42657.826,1461.362,36519.773,36039.608,PAYLOAD,LARGE,JPN,1990-01-01,AFETR,,3109923,184209649,0 JCSAT 2,1 20402U 90001B   21249.79809743 -.00000143  00000-0  00000-0 0  9992,2 20402  14.6063  25.1565 0056281 283.4671 266.3668  0.98538214 98146
2,GENERATED VIA SPACE-TRACK.ORG API,2021-09-07T19:18:29,18 SPCS,JCSAT 2,1990-001B,EARTH,TEME,UTC,SGP4,2021-09-07T07:17:45.921408,0.98538069,0.0056305,14.6066,25.1523,283.4585,85.8465,0,U,20402,999,9815,0.0,-1.32e-06,0,42657.868,1461.364,36519.918,36039.548,PAYLOAD,LARGE,JPN,1990-01-01,AFETR,,3110255,184239693,0 JCSAT 2,1 20402U 90001B   21250.30400372 -.00000132  00000-0  00000-0 0  9994,2 20402  14.6066  25.1523 0056305 283.4585  85.8465  0.98538069 98152
2,GENERATED VIA SPACE-TRACK.ORG API,2021-09-08T05:17:20,18 SPCS,JCSAT 2,1990-001B,EARTH,TEME,UTC,SGP4,2021-09-07T19:14:28.206240,0.98537882,0.0056315,14.607,25.1481,283.4494,262.4174,0,U,20402,999,9815,0.0,-1.21e-06,0,42657.922,1461.367,36520.015,36039.559,PAYLOAD,LARGE,JPN,1990-01-01,AFETR,,3110443,184267715,0 JCSAT 2,1 20402U 90001B   21250.80171535 -.00000121  00000-0  00000-0 0  9993,2 20402  14.6070  25.1481 0056315 283.4494 262.4174  0.98537882 98152
2,GENERATED VIA SPACE-TRACK.ORG API,2021-09-08T17:29:37,18 SPCS,JCSAT 2,1990-001B,EARTH,TEME,UTC,SGP4,2021-09-08T07:23:42.609120,0.98537736,0.0056345,14.6074,25.1439,283.4163,82.1016,0,U,20402,999,9816,0.0,-1.09e-06,0,42657.964,1461.369,36520.185,36039.473,PAYLOAD,LARGE,JPN,1990-01-01,AFETR,,3110975,184301918,0 JCSAT 2,1 20402U 90001B   21251.30813205 -.00000109  00000-0  00000-0 0  9992,2 20402  14.6074  25.1439 0056345 283.4163  82.1016  0.98537736 98166
2,GENERATED VIA SPACE-TRACK.ORG API,2021-09-08T22:46:11,18 SPCS,JCSAT 2,1990-001B,EARTH,TEME,UTC,SGP4,2021-09-08T19:19:48.300096,0.98537578,0.0056356,14.6079,25.1397,283.414,258.5157,0,U,20402,999,9814,0.0,-9.8e-07,0,42658.009,1461.371,36520.278,36039.471,PAYLOAD,LARGE,JPN,1990-01-01,AFETR,,3111100,184322802,0 JCSAT 2,1 20402U 90001B   21251.80542014 -.00000098  00000-0  00000+0 0  9990,2 20402  14.6079  25.1397 0056356 283.4140 258.5157  0.98537578 98148
2,GENERATED VIA SPACE-TRACK.ORG API,2021-09-09T03:08:05,18 SPCS,JCSAT 2,1990-001B,EARTH,TEME,UTC,SGP4,2021-09-08T19:19:48.300096,0.98537578,0.0056356,14.6079,25.1397,283.414,258.5157,0,U,20402,999,9816,0.0,-9.8e-07,0,42658.009,1461.371,36520.278,36039.471,PAYLOAD,LARGE,JPN,1990-01-01,AFETR,,3111252,184331721,0 JCSAT 2,1 20402U 90001B   21251.80542014 -.00000098  00000-0  00000-0 0  9991,2 20402  14.6079  25.1397 0056356 283.4140 258.5157  0.98537578 98160
2,GENERATED VIA SPACE-TRACK.ORG API,2021-09-09T20:07:04,18 SPCS,JCSAT 2,1990-001B,EARTH,TEME,UTC,SGP4,2021-09-09T07:48:15.081120,0.98537424,0.0056381,14.6084,25.1354,283.4015,82.9094,0,U,20402,999,9817,0.0,-8.7e-07,0,42658.054,1461.374,36520.429,36039.408,PAYLOAD,LARGE,JPN,1990-01-01,AFETR,,3111654,184365486,0 JCSAT 2,1 20402U 90001B   21252.32517455 -.00000087  00000-0  00000-0 0  9998,2 20402  14.6084  25.1354 0056381 283.4015  82.9094  0.98537424 98178
2,GENERATED VIA SPACE-TRACK.ORG API,2021-09-10T04:23:06,18 SPCS,JCSAT 2,1990-001B,EARTH,TEME,UTC,SGP4,2021-09-09T19:24:59.187168,0.98537247,0.0056396,14.6087,25.1313,283.3938,254.5575,0,U,20402,999,9817,0.0,-7.6e-07,0,42658.105,1461.376,36520.545,36039.395,PAYLOAD,LARGE,JPN,1990-01-01,AFETR,,3111873,184392654,0 JCSAT 2,1 20402U 90001B   21252.80901837 -.00000076  00000-0  00000-0 0  9990,2 20402  14.6087  25.1313 0056396 283.3938 254.5575  0.98537247 98179
2,GENERATED VIA SPACE-TRACK.ORG API,2021-09-10T17:45:11,18 SPCS,JCSAT 2,1990-001B,EARTH,TEME,UTC,SGP4,2021-09-10T08:21:12.771936,0.98537124,0.0056423,14.6092,25.1267,283.3904,85.786,0,U,20402,999,9818,0.0,-6.5e-07,0,42658.14,1461.378,36520.695,36039.315,PAYLOAD,LARGE,JPN,1990-01-01,AFETR,,3112362,184426510,0 JCSAT 2,1 20402U 90001B   21253.34806449 -.00000065  00000-0  00000-0 0  9991,2 20402  14.6092  25.1267 0056423 283.3904  85.7860  0.98537124 98183
2,GENERATED VIA SPACE-TRACK.ORG API,2021-09-11T03:34:19,18 SPCS,JCSAT 2,1990-001B,EARTH,TEME,UTC,SGP4,2021-09-10T19:30:13.425696,0.98537011,0.0056437,14.6096,25.1228,283.3956,250.5923,0,U,20402,999,9818,0.0,-5.6e-07,0,42658.173,1461.38,36520.788,36039.288,PAYLOAD,LARGE,JPN,1990-01-01,AFETR,,3112758,184458425,0 JCSAT 2,1 20402U 90001B   21253.81265539 -.00000056  00000-0  00000-0 0  9992,2 20402  14.6096  25.1228 0056437 283.3956 250.5923  0.98537011 98183
2,GENERATED VIA SPACE-TRACK.ORG API,2021-09-11T06:36:12,18 SPCS,JCSAT 2,1990-001B,EARTH,TEME,UTC,SGP4,2021-09-10T19:30:13.425696,0.98537011,0.0056437,14.6096,25.1228,283.3956,250.5923,0,U,20402,999,9816,0.0,-5.7e-07,0,42658.173,1461.38,36520.788,36039.288,PAYLOAD,LARGE,JPN,1990-01-01,AFETR,,3112876,184478620,0 JCSAT 2,1 20402U 90001B   21253.81265539 -.00000057  00000-0  00000+0 0  9992,2 20402  14.6096  25.1228 0056437 283.3956 250.5923  0.98537011 98161
2,GENERATED VIA SPACE-TRACK.ORG API,2021-09-11T19:41:40,18 SPCS,JCSAT 2,1990-001B,EARTH,TEME,UTC,SGP4,2021-09-11T08:14:46.774752,0.98536936,0.0056461,14.6099,25.1183,283.393,78.9453,0,U,20402,999,9819,0.0,-4.7e-07,0,42658.195,1461.381,36520.912,36039.207,PAYLOAD,LARGE,JPN,1990-01-01,AFETR,,3113181,184490213,0 JCSAT 2,1 20402U 90001B   21254.34359693 -.00000047  00000-0  00000-0 0  9996,2 20402  14.6099  25.1183 0056461 283.3930  78.9453  0.98536936 98191
2,GENERATED VIA SPACE-TRACK.ORG API,2021-09-12T19:48:36,18 SPCS,JCSAT 2,1990-001B,EARTH,TEME,UTC,SGP4,2021-09-12T09:21:27.855072,0.98536729,0.0056499,14.6108,25.1095,283.3938,90.1155,0,U,20402,999,9820,0.0,-3.1e-07,0,42658.254,1461.384,36521.134,36039.105,PAYLOAD,LARGE,JPN,1990-01-01,AFETR,,3114003,184556787,0 JCSAT 2,1 20402U 90001B   21255.38990573 -.00000031  00000-0  00000-0 0  9992,2 20402  14.6108  25.1095 0056499 283.3938  90.1155  0.98536729 98200
2,GENERATED VIA SPACE-TRACK.ORG API,2021-09-13T02:42:08,18 SPCS,JCSAT 2,1990-001B,EARTH,TEME,UTC,SGP4,2021-09-12T21:23:42.379008,0.98536687,0.0056513,14.6112,25.1052,283.4102,268.0244,0,U,20402,999,9820,0.0,-2.5e-07,0,42658.267,1461.385,36521.206,36039.057,PAYLOAD,LARGE,JPN,1990-01-01,AFETR,,3114195,184583497,0 JCSAT 2,1 20402U 90001B   21255.89146272 -.00000025  00000-0  00000-0 0  9990,2 20402  14.6112  25.1052 0056513 283.4102 268.0244  0.98536687 98207
2,GENERATED VIA SPACE-TRACK.ORG API,2021-09-13T07:26:11,18 SPCS,JCSAT 2,1990-001B,EARTH,TEME,UTC,SGP4,2021-09-12T21:23:42.379008,0.98536687,0.0056513,14.6112,25.1052,283.4102,268.0244,0,U,20402,999,9818,0.0,-2.5e-07,0,42658.267,1461.385,36521.206,36039.057,PAYLOAD,LARGE,JPN,1990-01-01,AFETR,,3114516,184608547,0 JCSAT 2,1 20402U 90001B   21255.89146272 -.00000025  00000-0  00000+0 0  9999,2 20402  14.6112  25.1052 0056513 283.4102 268.0244  0.98536687 98184
